STARLINK-3568           
1 51856U 22022E   26068.25012991 -.00000119  00000+0  10592-4 0  9996
2 51856  53.2194  21.1030 0001134  91.1770 268.9352 15.08849092222986
LEMUR-2-STELLA          
1 60533U 24149BT  26068.72657350  .00013685  00000+0  85776-3 0  9992
2 60533  97.6764 150.9122 0001299  95.1117 265.0260 15.09464064 85488
